SL-8 R/B                
1 11574U 79089B   26112.16409482  .00000169  00000+0  59103-4 0  9994
2 11574  74.0713  10.5674 0015787 175.4307 184.6997 14.42377328442375
SL-14 R/B               
1 11672U 80005B   26111.88118696  .00000430  00000+0  40834-4 0  9997
2 11672  82.5120 266.2505 0016252  24.6713 335.5280 14.90977620482928
SL-8 R/B                
1 12139U 81003B   26112.08587505  .00013217  00000+0  32800-3 0  9997
2 12139  82.9367 249.8345 0256803  27.8709 333.6007 15.12730894321238
SL-3 R/B                
1 12465U 81046B   26112.31138336  .00009734  00000+0  21863-3 0  9992
2 12465  81.2311 237.3131 0018322 225.4335 134.5413 15.43030453445154
SL-3 R/B                
1 12904U 81103B   26112.30508518  .00002751  00000+0  11969-3 0  9994
2 12904  81.1583 162.2597 0014150 136.4899 223.7452 15.21826446979860
SL-3 R/B                
1 13068U 82013B   26112.23083576  .00002876  00000+0  12265-3 0  9999
2 13068  81.1714 109.7151 0022908  36.2745 324.0034 15.22367338410971
SL-3 R/B                
1 13154U 82039B   26112.25375473  .00001150  00000+0  68165-4 0  9990
2 13154  81.1497 165.7122 0028171 176.3270 183.8168 15.10290628388216
SL-3 R/B                
1 13403U 82079B   26112.23250221  .00003738  00000+0  14629-3 0  9991
2 13403  81.1445 141.6470 0024491  22.1003 338.1280 15.25285338384335
SL-14 R/B               
1 13553U 82092B   26111.98121647  .00000323  00000+0  33415-4 0  9994
2 13553  82.5648 100.8916 0021021 153.4946 230.1435 14.86702271335361
SL-3 R/B                
1 13819U 83010B   26111.64314044  .00011626  00000+0  22368-3 0  9990
2 13819  81.1011 309.5248 0015076 256.5334 103.4232 15.47636848364587
SL-3 R/B                
1 14208U 83075B   26112.25187403  .00008397  00000+0  21501-3 0  9998
2 14208  97.6135 118.5144 0023092  75.7624 284.6184 15.39391939336859
COSMOS 1536             
1 14699U 84013A   26112.11682002  .00005482  00000+0  22158-3 0  9996
2 14699  82.5449  64.6528 0015916 124.8887 235.3849 15.24402798279233
SL-14 R/B               
1 14820U 84027B   26112.25983263  .00000339  00000+0  35950-4 0  9996
2 14820  82.5445 204.1560 0017864 184.2893 175.8173 14.86019686254107
SL-8 R/B                
1 15483U 85006B   26112.28385860  .00000147  00000+0  57271-4 0  9999
2 15483  74.0460 180.9335 0017185  84.1942 336.7720 14.37810108160292
SL-12 R/B(2)            
1 15772U 85042D   26112.18080632  .00000056  00000+0  46376-4 0  9991
2 15772  71.1100 355.8457 0033302  56.0359  72.3894 14.21994151120575
SL-14 R/B               
1 15945U 85069B   26112.09663681  .00000289  00000+0  29825-4 0  9991
2 15945  82.5279 344.1268 0020013  51.6269 308.6742 14.86474462179285
SL-16 R/B               
1 16182U 85097B   26112.29049353 -.00000119  00000+0 -35804-4 0  9990
2 16182  71.0041  48.7570 0008270 206.4466 308.5043 14.16607062 93401
