[{"OBJECT_NAME":"SL-8 R/B","OBJECT_ID":"1979-089B","EPOCH":"2026-04-22T03:56:17.792448","MEAN_MOTION":14.42377328,"ECCENTRICITY":0.0015787,"INCLINATION":74.0713,"RA_OF_ASC_NODE":10.5674,"ARG_OF_PERICENTER":175.4307,"MEAN_ANOMALY":184.6997,"EPHEMERIS_TYPE":0,"CLASSIFICATION_TYPE":"U","NORAD_CAT_ID":11574,"ELEMENT_SET_NO":999,"REV_AT_EPOCH":44237,"BSTAR":5.9103344e-5,"MEAN_MOTION_DOT":1.69e-6,"MEAN_MOTION_DDOT":0},{"OBJECT_NAME":"SL-14 R/B","OBJECT_ID":"1980-005B","EPOCH":"2026-04-21T21:08:54.553344","MEAN_MOTION":14.9097762,"ECCENTRICITY":0.0016252,"INCLINATION":82.512,"RA_OF_ASC_NODE":266.2505,"ARG_OF_PERICENTER":24.6713,"MEAN_ANOMALY":335.528,"EPHEMERIS_TYPE":0,"CLASSIFICATION_TYPE":"U","NORAD_CAT_ID":11672,"ELEMENT_SET_NO":999,"REV_AT_EPOCH":48292,"BSTAR":4.0834e-5,"MEAN_MOTION_DOT":4.3e-6,"MEAN_MOTION_DDOT":0},{"OBJECT_NAME":"SL-8 R/B","OBJECT_ID":"1981-003B","EPOCH":"2026-04-22T02:03:39.604320","MEAN_MOTION":15.12730894,"ECCENTRICITY":0.0256803,"INCLINATION":82.9367,"RA_OF_ASC_NODE":249.8345,"ARG_OF_PERICENTER":27.8709,"MEAN_ANOMALY":333.6007,"EPHEMERIS_TYPE":0,"CLASSIFICATION_TYPE":"U","NORAD_CAT_ID":12139,"ELEMENT_SET_NO":999,"REV_AT_EPOCH":32123,"BSTAR":0.00032800208,"MEAN_MOTION_DOT":0.00013217,"MEAN_MOTION_DDOT":0},{"OBJECT_NAME":"SL-3 R/B","OBJECT_ID":"1981-046B","EPOCH":"2026-04-22T07:28:23.522304","MEAN_MOTION":15.43030453,"ECCENTRICITY":0.00183224,"INCLINATION":81.2311,"RA_OF_ASC_NODE":237.3131,"ARG_OF_PERICENTER":225.4335,"MEAN_ANOMALY":134.5413,"EPHEMERIS_TYPE":0,"CLASSIFICATION_TYPE":"U","NORAD_CAT_ID":12465,"ELEMENT_SET_NO":999,"REV_AT_EPOCH":44515,"BSTAR":0.0002186316,"MEAN_MOTION_DOT":9.734e-5,"MEAN_MOTION_DDOT":0},{"OBJECT_NAME":"SL-3 R/B","OBJECT_ID":"1981-103B","EPOCH":"2026-04-22T07:19:19.359552","MEAN_MOTION":15.21826446,"ECCENTRICITY":0.00141503,"INCLINATION":81.1583,"RA_OF_ASC_NODE":162.2597,"ARG_OF_PERICENTER":136.4899,"MEAN_ANOMALY":223.7452,"EPHEMERIS_TYPE":0,"CLASSIFICATION_TYPE":"U","NORAD_CAT_ID":12904,"ELEMENT_SET_NO":999,"REV_AT_EPOCH":97986,"BSTAR":0.00011968523,"MEAN_MOTION_DOT":2.751e-5,"MEAN_MOTION_DDOT":0},{"OBJECT_NAME":"SL-3 R/B","OBJECT_ID":"1982-013B","EPOCH":"2026-04-22T05:32:24.209664","MEAN_MOTION":15.22367338,"ECCENTRICITY":0.00229086,"INCLINATION":81.1714,"RA_OF_ASC_NODE":109.7151,"ARG_OF_PERICENTER":36.2745,"MEAN_ANOMALY":324.0034,"EPHEMERIS_TYPE":0,"CLASSIFICATION_TYPE":"U","NORAD_CAT_ID":13068,"ELEMENT_SET_NO":999,"REV_AT_EPOCH":41097,"BSTAR":0.00012265377,"MEAN_MOTION_DOT":2.876e-5,"MEAN_MOTION_DDOT":0},{"OBJECT_NAME":"SL-3 R/B","OBJECT_ID":"1982-039B","EPOCH":"2026-04-22T06:05:24.408672","MEAN_MOTION":15.10290628,"ECCENTRICITY":0.00281715,"INCLINATION":81.1497,"RA_OF_ASC_NODE":165.7122,"ARG_OF_PERICENTER":176.327,"MEAN_ANOMALY":183.8168,"EPHEMERIS_TYPE":0,"CLASSIFICATION_TYPE":"U","NORAD_CAT_ID":13154,"ELEMENT_SET_NO":999,"REV_AT_EPOCH":38821,"BSTAR":6.8164855e-5,"MEAN_MOTION_DOT":1.15e-5,"MEAN_MOTION_DDOT":0},{"OBJECT_NAME":"SL-3 R/B","OBJECT_ID":"1982-079B","EPOCH":"2026-04-22T05:34:48.190944","MEAN_MOTION":15.25285338,"ECCENTRICITY":0.00244912,"INCLINATION":81.1445,"RA_OF_ASC_NODE":141.647,"ARG_OF_PERICENTER":22.1003,"MEAN_ANOMALY":338.128,"EPHEMERIS_TYPE":0,"CLASSIFICATION_TYPE":"U","NORAD_CAT_ID":13403,"ELEMENT_SET_NO":999,"REV_AT_EPOCH":38433,"BSTAR":0.00014628962,"MEAN_MOTION_DOT":3.738e-5,"MEAN_MOTION_DDOT":0},{"OBJECT_NAME":"SL-14 R/B","OBJECT_ID":"1982-092B","EPOCH":"2026-04-21T23:32:57.103008","MEAN_MOTION":14.86702271,"ECCENTRICITY":0.00210211,"INCLINATION":82.5648,"RA_OF_ASC_NODE":100.8916,"ARG_OF_PERICENTER":153.4946,"MEAN_ANOMALY":230.1435,"EPHEMERIS_TYPE":0,"CLASSIFICATION_TYPE":"U","NORAD_CAT_ID":13553,"ELEMENT_SET_NO":999,"REV_AT_EPOCH":33536,"BSTAR":3.3415321e-5,"MEAN_MOTION_DOT":3.23e-6,"MEAN_MOTION_DDOT":0},{"OBJECT_NAME":"SL-3 R/B","OBJECT_ID":"1983-010B","EPOCH":"2026-04-21T15:26:07.334016","MEAN_MOTION":15.47636848,"ECCENTRICITY":0.00150764,"INCLINATION":81.1011,"RA_OF_ASC_NODE":309.5248,"ARG_OF_PERICENTER":256.5334,"MEAN_ANOMALY":103.4232,"EPHEMERIS_TYPE":0,"CLASSIFICATION_TYPE":"U","NORAD_CAT_ID":13819,"ELEMENT_SET_NO":999,"REV_AT_EPOCH":36458,"BSTAR":0.00022368457,"MEAN_MOTION_DOT":0.00011626,"MEAN_MOTION_DDOT":0},{"OBJECT_NAME":"SL-3 R/B","OBJECT_ID":"1983-075B","EPOCH":"2026-04-22T06:02:41.916192","MEAN_MOTION":15.39391939,"ECCENTRICITY":0.00230924,"INCLINATION":97.6135,"RA_OF_ASC_NODE":118.5144,"ARG_OF_PERICENTER":75.7624,"MEAN_ANOMALY":284.6184,"EPHEMERIS_TYPE":0,"CLASSIFICATION_TYPE":"U","NORAD_CAT_ID":14208,"ELEMENT_SET_NO":999,"REV_AT_EPOCH":33685,"BSTAR":0.00021501364,"MEAN_MOTION_DOT":8.397e-5,"MEAN_MOTION_DDOT":0},{"OBJECT_NAME":"COSMOS 1536","OBJECT_ID":"1984-013A","EPOCH":"2026-04-22T02:48:13.249728","MEAN_MOTION":15.24402798,"ECCENTRICITY":0.00159167,"INCLINATION":82.5449,"RA_OF_ASC_NODE":64.6528,"ARG_OF_PERICENTER":124.8887,"MEAN_ANOMALY":235.3849,"EPHEMERIS_TYPE":0,"CLASSIFICATION_TYPE":"U","NORAD_CAT_ID":14699,"ELEMENT_SET_NO":999,"REV_AT_EPOCH":27923,"BSTAR":0.0002215818,"MEAN_MOTION_DOT":5.482e-5,"MEAN_MOTION_DDOT":0},{"OBJECT_NAME":"SL-14 R/B","OBJECT_ID":"1984-027B","EPOCH":"2026-04-22T06:14:09.539232","MEAN_MOTION":14.86019686,"ECCENTRICITY":0.00178645,"INCLINATION":82.5445,"RA_OF_ASC_NODE":204.156,"ARG_OF_PERICENTER":184.2893,"MEAN_ANOMALY":175.8173,"EPHEMERIS_TYPE":0,"CLASSIFICATION_TYPE":"U","NORAD_CAT_ID":14820,"ELEMENT_SET_NO":999,"REV_AT_EPOCH":25410,"BSTAR":3.5949766e-5,"MEAN_MOTION_DOT":3.39e-6,"MEAN_MOTION_DDOT":0},{"OBJECT_NAME":"SL-8 R/B","OBJECT_ID":"1985-006B","EPOCH":"2026-04-22T06:48:45.383040","MEAN_MOTION":14.37810108,"ECCENTRICITY":0.00171854,"INCLINATION":74.046,"RA_OF_ASC_NODE":180.9335,"ARG_OF_PERICENTER":84.1942,"MEAN_ANOMALY":336.772,"EPHEMERIS_TYPE":0,"CLASSIFICATION_TYPE":"U","NORAD_CAT_ID":15483,"ELEMENT_SET_NO":999,"REV_AT_EPOCH":16029,"BSTAR":5.7270921e-5,"MEAN_MOTION_DOT":1.47e-6,"MEAN_MOTION_DDOT":0},{"OBJECT_NAME":"SL-12 R/B(2)","OBJECT_ID":"1985-042D","EPOCH":"2026-04-22T04:20:21.666048","MEAN_MOTION":14.21994151,"ECCENTRICITY":0.00333028,"INCLINATION":71.11,"RA_OF_ASC_NODE":355.8457,"ARG_OF_PERICENTER":56.0359,"MEAN_ANOMALY":72.3894,"EPHEMERIS_TYPE":0,"CLASSIFICATION_TYPE":"U","NORAD_CAT_ID":15772,"ELEMENT_SET_NO":999,"REV_AT_EPOCH":12057,"BSTAR":4.637614e-5,"MEAN_MOTION_DOT":5.6e-7,"MEAN_MOTION_DDOT":0},{"OBJECT_NAME":"SL-14 R/B","OBJECT_ID":"1985-069B","EPOCH":"2026-04-22T02:19:09.420384","MEAN_MOTION":14.86474462,"ECCENTRICITY":0.00200138,"INCLINATION":82.5279,"RA_OF_ASC_NODE":344.1268,"ARG_OF_PERICENTER":51.6269,"MEAN_ANOMALY":308.6742,"EPHEMERIS_TYPE":0,"CLASSIFICATION_TYPE":"U","NORAD_CAT_ID":15945,"ELEMENT_SET_NO":999,"REV_AT_EPOCH":17928,"BSTAR":2.9824714e-5,"MEAN_MOTION_DOT":2.89e-6,"MEAN_MOTION_DDOT":0},{"OBJECT_NAME":"SL-16 R/B","OBJECT_ID":"1985-097B","EPOCH":"2026-04-22T06:58:18.640992","MEAN_MOTION":14.16607062,"ECCENTRICITY":0.00082707,"INCLINATION":71.0041,"RA_OF_ASC_NODE":48.757,"ARG_OF_PERICENTER":206.4466,"MEAN_ANOMALY":308.5043,"EPHEMERIS_TYPE":0,"CLASSIFICATION_TYPE":"U","NORAD_CAT_ID":16182,"ELEMENT_SET_NO":999,"REV_AT_EPOCH":9340,"BSTAR":-3.5803963e-5,"MEAN_MOTION_DOT":-1.19e-6,"MEAN_MOTION_DDOT":0}]
